[{"OBJECT_NAME":"COSMOS 2451","OBJECT_ID":"2009-036A","EPOCH":"2026-03-09T22:04:44.603616","MEAN_MOTION":12.40868215,"ECCENTRICITY":0.00077502,"INCLINATION":82.492,"RA_OF_ASC_NODE":153.957,"ARG_OF_PERICENTER":72.2145,"MEAN_ANOMALY":287.9779,"EPHEMERIS_TYPE":0,"CLASSIFICATION_TYPE":"U","NORAD_CAT_ID":35498,"ELEMENT_SET_NO":999,"REV_AT_EPOCH":75533,"BSTAR":0.00023043037,"MEAN_MOTION_DOT":4.1e-7,"MEAN_MOTION_DDOT":0},{"OBJECT_NAME":"SL-8 DEB","OBJECT_ID":"1991-009BR","EPOCH":"2026-03-09T20:54:08.534304","MEAN_MOTION":12.18410193,"ECCENTRICITY":0.01371315,"INCLINATION":74.031,"RA_OF_ASC_NODE":359.1269,"ARG_OF_PERICENTER":157.5614,"MEAN_ANOMALY":264.7267,"EPHEMERIS_TYPE":0,"CLASSIFICATION_TYPE":"U","NORAD_CAT_ID":21402,"ELEMENT_SET_NO":999,"REV_AT_EPOCH":55664,"BSTAR":0.0005973947,"MEAN_MOTION_DOT":4.8e-7,"MEAN_MOTION_DDOT":0}]
